{
  "type": "FeatureCollection",
  "features": [
    {
      "type": "Feature",
      "properties": {
        "norad_id": 34971,
        "name": "COSMOS 2251 DEB",
        "group": "cosmos-2251-debris",
        "lat": -39.93406279503542,
        "lon": -84.09217560914499,
        "alt_km": 760.4569425277559,
        "timestamp": "2025-12-10T04:57:30.017568+00:00",
        "meta_object_name": "COSMOS 2251 DEB",
        "meta_object_id": "1993-036AFA",
        "meta_epoch": "2025-12-09T13:13:36.252192",
        "meta_mean_motion": 14.55626239,
        "meta_eccentricity": 0.0069751,
        "meta_inclination": 73.9783,
        "meta_ra_of_asc_node": 291.0727,
        "meta_arg_of_pericenter": 157.5993,
        "meta_mean_anomaly": 326.8397,
        "meta_ephemeris_type": 0,
        "meta_classification_type": "U",
        "meta_norad_cat_id": 34971,
        "meta_element_set_no": 999,
        "meta_rev_at_epoch": 66126,
        "meta_bstar": 0.0003002,
        "meta_mean_motion_dot": 1.323e-05,
        "meta_mean_motion_ddot": 0,
        "tle_line1": "1 34971U 93036AFA 25343.55111403  .00001323  00000+0  30020-3 0  9998",
        "tle_line2": "2 34971  73.9783 291.0727 0069751 157.5993 326.8397 14.55626239661260"
      },
      "geometry": {
        "type": "Point",
        "coordinates": [
          -84.09217560914499,
          -39.93406279503542
        ]
      }
    },
    {
      "type": "Feature",
      "properties": {
        "norad_id": 34972,
        "name": "COSMOS 2251 DEB",
        "group": "cosmos-2251-debris",
        "lat": 48.03394622871102,
        "lon": 73.42732553026258,
        "alt_km": 670.4234998670872,
        "timestamp": "2025-12-10T04:57:30.017578+00:00",
        "meta_object_name": "COSMOS 2251 DEB",
        "meta_object_id": "1993-036AFB",
        "meta_epoch": "2025-12-09T04:23:50.530272",
        "meta_mean_motion": 14.72780189,
        "meta_eccentricity": 0.00340554,
        "meta_inclination": 73.9883,
        "meta_ra_of_asc_node": 56.8045,
        "meta_arg_of_pericenter": 216.3223,
        "meta_mean_anomaly": 170.8058,
        "meta_ephemeris_type": 0,
        "meta_classification_type": "U",
        "meta_norad_cat_id": 34972,
        "meta_element_set_no": 999,
        "meta_rev_at_epoch": 87598,
        "meta_bstar": 0.0017524767,
        "meta_mean_motion_dot": 0.00011289,
        "meta_mean_motion_ddot": 0,
        "tle_line1": "1 34972U 93036AFB 25343.18322373  .00011289  00000+0  17525-2 0  9994",
        "tle_line2": "2 34972  73.9883  56.8045 0034055 216.3223 170.8058 14.72780189875982"
      },
      "geometry": {
        "type": "Point",
        "coordinates": [
          73.42732553026258,
          48.03394622871102
        ]
      }
    },
    {
      "type": "Feature",
      "properties": {
        "norad_id": 34976,
        "name": "COSMOS 2251 DEB",
        "group": "cosmos-2251-debris",
        "lat": 63.35287285124982,
        "lon": 96.47893005475038,
        "alt_km": 647.0024725231706,
        "timestamp": "2025-12-10T04:57:30.017589+00:00",
        "meta_object_name": "COSMOS 2251 DEB",
        "meta_object_id": "1993-036AFF",
        "meta_epoch": "2025-12-09T16:15:30.263040",
        "meta_mean_motion": 14.76454328,
        "meta_eccentricity": 0.0047851,
        "meta_inclination": 74.058,
        "meta_ra_of_asc_node": 312.2389,
        "meta_arg_of_pericenter": 359.6542,
        "meta_mean_anomaly": 179.9605,
        "meta_ephemeris_type": 0,
        "meta_classification_type": "U",
        "meta_norad_cat_id": 34976,
        "meta_element_set_no": 999,
        "meta_rev_at_epoch": 88228,
        "meta_bstar": 0.0023376,
        "meta_mean_motion_dot": 0.00016584,
        "meta_mean_motion_ddot": 0,
        "tle_line1": "1 34976U 93036AFF 25343.67743360  .00016584  00000+0  23376-2 0  9999",
        "tle_line2": "2 34976  74.0580 312.2389 0047851 359.6542 179.9605 14.76454328882281"
      },
      "geometry": {
        "type": "Point",
        "coordinates": [
          96.47893005475038,
          63.35287285124982
        ]
      }
    },
    {
      "type": "Feature",
      "properties": {
        "norad_id": 34979,
        "name": "COSMOS 2251 DEB",
        "group": "cosmos-2251-debris",
        "lat": 43.321501486755956,
        "lon": 76.58908621903667,
        "alt_km": 655.3918687067535,
        "timestamp": "2025-12-10T04:57:30.017599+00:00",
        "meta_object_name": "COSMOS 2251 DEB",
        "meta_object_id": "1993-036AFJ",
        "meta_epoch": "2025-12-09T18:36:55.486080",
        "meta_mean_motion": 14.79254619,
        "meta_eccentricity": 0.0049128,
        "meta_inclination": 74.0398,
        "meta_ra_of_asc_node": 273.0942,
        "meta_arg_of_pericenter": 351.6383,
        "meta_mean_anomaly": 8.3968,
        "meta_ephemeris_type": 0,
        "meta_classification_type": "U",
        "meta_norad_cat_id": 34979,
        "meta_element_set_no": 999,
        "meta_rev_at_epoch": 88176,
        "meta_bstar": 0.0020877,
        "meta_mean_motion_dot": 0.0001584,
        "meta_mean_motion_ddot": 0,
        "tle_line1": "1 34979U 93036AFJ 25343.77564220  .00015840  00000+0  20877-2 0  9996",
        "tle_line2": "2 34979  74.0398 273.0942 0049128 351.6383   8.3968 14.79254619881767"
      },
      "geometry": {
        "type": "Point",
        "coordinates": [
          76.58908621903667,
          43.321501486755956
        ]
      }
    },
    {
      "type": "Feature",
      "properties": {
        "norad_id": 34990,
        "name": "COSMOS 2251 DEB",
        "group": "cosmos-2251-debris",
        "lat": -33.118924610364,
        "lon": 86.7879872111283,
        "alt_km": 759.2386160637489,
        "timestamp": "2025-12-10T04:57:30.017609+00:00",
        "meta_object_name": "COSMOS 2251 DEB",
        "meta_object_id": "1993-036AFN",
        "meta_epoch": "2025-12-07T01:03:28.213920",
        "meta_mean_motion": 14.42350123,
        "meta_eccentricity": 0.00162731,
        "meta_inclination": 74.0455,
        "meta_ra_of_asc_node": 261.8923,
        "meta_arg_of_pericenter": 325.0179,
        "meta_mean_anomaly": 34.9906,
        "meta_ephemeris_type": 0,
        "meta_classification_type": "U",
        "meta_norad_cat_id": 34990,
        "meta_element_set_no": 999,
        "meta_rev_at_epoch": 87264,
        "meta_bstar": 0.00072596004,
        "meta_mean_motion_dot": 2.377e-05,
        "meta_mean_motion_ddot": 0,
        "tle_line1": "1 34990U 93036AFN 25341.04407655  .00002377  00000+0  72596-3 0  9992",
        "tle_line2": "2 34990  74.0455 261.8923 0016273 325.0179  34.9906 14.42350123872642"
      },
      "geometry": {
        "type": "Point",
        "coordinates": [
          86.7879872111283,
          -33.118924610364
        ]
      }
    },
    {
      "type": "Feature",
      "properties": {
        "norad_id": 34997,
        "name": "COSMOS 2251 DEB",
        "group": "cosmos-2251-debris",
        "lat": -7.4649824226960995,
        "lon": -46.20572833555422,
        "alt_km": 709.5047083153449,
        "timestamp": "2025-12-10T04:57:30.017619+00:00",
        "meta_object_name": "COSMOS 2251 DEB",
        "meta_object_id": "1993-036AFV",
        "meta_epoch": "2025-12-09T15:42:21.613248",
        "meta_mean_motion": 14.45493878,
        "meta_eccentricity": 0.0097903,
        "meta_inclination": 73.8812,
        "meta_ra_of_asc_node": 317.0047,
        "meta_arg_of_pericenter": 292.5764,
        "meta_mean_anomaly": 66.5057,
        "meta_ephemeris_type": 0,
        "meta_classification_type": "U",
        "meta_norad_cat_id": 34997,
        "meta_element_set_no": 999,
        "meta_rev_at_epoch": 70702,
        "meta_bstar": 0.0029443,
        "meta_mean_motion_dot": 0.00010999,
        "meta_mean_motion_ddot": 0,
        "tle_line1": "1 34997U 93036AFV 25343.65441682  .00010999  00000+0  29443-2 0  9997",
        "tle_line2": "2 34997  73.8812 317.0047 0097903 292.5764  66.5057 14.45493878707026"
      },
      "geometry": {
        "type": "Point",
        "coordinates": [
          -46.20572833555422,
          -7.4649824226960995
        ]
      }
    },
    {
      "type": "Feature",
      "properties": {
        "norad_id": 34998,
        "name": "COSMOS 2251 DEB",
        "group": "cosmos-2251-debris",
        "lat": -15.806615042738798,
        "lon": -10.600674010433469,
        "alt_km": 738.5420033175569,
        "timestamp": "2025-12-10T04:57:30.017629+00:00",
        "meta_object_name": "COSMOS 2251 DEB",
        "meta_object_id": "1993-036AFW",
        "meta_epoch": "2025-12-09T11:37:03.426816",
        "meta_mean_motion": 14.4925952,
        "meta_eccentricity": 0.00210124,
        "meta_inclination": 74.0095,
        "meta_ra_of_asc_node": 166.0998,
        "meta_arg_of_pericenter": 311.9127,
        "meta_mean_anomaly": 76.4992,
        "meta_ephemeris_type": 0,
        "meta_classification_type": "U",
        "meta_norad_cat_id": 34998,
        "meta_element_set_no": 999,
        "meta_rev_at_epoch": 87373,
        "meta_bstar": 0.00089460042,
        "meta_mean_motion_dot": 3.394e-05,
        "meta_mean_motion_ddot": 0,
        "tle_line1": "1 34998U 93036AFW 25343.48406744  .00003394  00000+0  89460-3 0  9996",
        "tle_line2": "2 34998  74.0095 166.0998 0021012 311.9127  76.4992 14.49259520873735"
      },
      "geometry": {
        "type": "Point",
        "coordinates": [
          -10.600674010433469,
          -15.806615042738798
        ]
      }
    }
  ]
}